start=new Date('2022-05-03T00:00:00.000Z').valueOf();
sats=[{"ARG_OF_PERICENTER":"52.9936","FILE":"3426306","CLASSIFICATION_TYPE":"U","BSTAR":"0.00049711000000","MEAN_MOTION_DDOT":"0.0000000000000","ECCENTRICITY":"0.00018390","OBJECT_ID":"2020-074BD","TIME_SYSTEM":"UTC","TLE_LINE1":"1 46790U 20074BD  22122.82293734  .00007132  00000-0  49711-3 0  9994","OBJECT_NAME":"STARLINK-1931","COUNTRY_CODE":"US","REF_FRAME":"TEME","CENTER_NAME":"EARTH","PERIAPSIS":"545.915","PERIOD":"95.592","SEMIMAJOR_AXIS":"6925.323","TLE_LINE2":"2 46790  53.0532 157.2931 0001839  52.9936 307.1221 15.06408271 84629","GP_ID":"202555708","APOAPSIS":"548.462","MEAN_ANOMALY":"307.1221","LAUNCH_DATE":"2020-10-24","MEAN_ELEMENT_THEORY":"SGP4","EPHEMERIS_TYPE":"0","EPOCH":"2022-05-02T19:45:01.786176","RA_OF_ASC_NODE":"157.2931","RCS_SIZE":"LARGE","NORAD_CAT_ID":"46790","OBJECT_TYPE":"PAYLOAD","SITE":"AFETR","MEAN_MOTION_DOT":"0.00007132","REV_AT_EPOCH":"8462","DECAY_DATE":null,"MEAN_MOTION":"15.06408271","ELEMENT_SET_NO":"999","INCLINATION":"53.0532"},{"EPOCH":"2022-05-02T12:08:33.638496","EPHEMERIS_TYPE":"0","MEAN_ELEMENT_THEORY":"SGP4","LAUNCH_DATE":"2020-10-24","MEAN_ANOMALY":"321.3449","APOAPSIS":"548.687","TLE_LINE2":"2 46791  53.0539 158.6988 0002133  38.7692 321.3449 15.06401177 84250","GP_ID":"202531237","SEMIMAJOR_AXIS":"6925.345","PERIOD":"95.592","ELEMENT_SET_NO":"999","DECAY_DATE":null,"REV_AT_EPOCH":"8425","MEAN_MOTION":"15.06401177","INCLINATION":"53.0539","MEAN_MOTION_DOT":"0.00005850","SITE":"AFETR","NORAD_CAT_ID":"46791","OBJECT_TYPE":"PAYLOAD","RCS_SIZE":"LARGE","RA_OF_ASC_NODE":"158.6988","OBJECT_ID":"2020-074BE","ECCENTRICITY":"0.00021330","MEAN_MOTION_DDOT":"0.0000000000000","BSTAR":"0.00041127000000","CLASSIFICATION_TYPE":"U","FILE":"3426088","ARG_OF_PERICENTER":"38.7692","PERIAPSIS":"545.733","COUNTRY_CODE":"US","REF_FRAME":"TEME","CENTER_NAME":"EARTH","OBJECT_NAME":"STARLINK-1933","TLE_LINE1":"1 46791U 20074BE  22122.50594489  .00005850  00000-0  41127-3 0  9999","TIME_SYSTEM":"UTC"},{"BSTAR":"0.00018144000000","CLASSIFICATION_TYPE":"U","ECCENTRICITY":"0.00022530","OBJECT_ID":"2020-074BF","MEAN_MOTION_DDOT":"0.0000000000000","ARG_OF_PERICENTER":"36.7583","FILE":"3426306","COUNTRY_CODE":"US","CENTER_NAME":"EARTH","REF_FRAME":"TEME","PERIAPSIS":"545.668","OBJECT_NAME":"STARLINK-1934","TIME_SYSTEM":"UTC","TLE_LINE1":"1 46792U 20074BF  22122.79805299  .00002421  00000-0  18144-3 0  9999","LAUNCH_DATE":"2020-10-24","MEAN_ANOMALY":"323.3560","EPHEMERIS_TYPE":"0","EPOCH":"2022-05-02T19:09:11.778336","MEAN_ELEMENT_THEORY":"SGP4","SEMIMAJOR_AXIS":"6925.363","TLE_LINE2":"2 46792  53.0531 147.3893 0002253  36.7583 323.3560 15.06395148 84765","GP_ID":"202556204","PERIOD":"95.592","APOAPSIS":"548.789","DECAY_DATE":null,"INCLINATION":"53.0531","REV_AT_EPOCH":"8476","ELEMENT_SET_NO":"999","MEAN_MOTION":"15.06395148","SITE":"AFETR","MEAN_MOTION_DOT":"0.00002421","RA_OF_ASC_NODE":"147.3893","OBJECT_TYPE":"PAYLOAD","NORAD_CAT_ID":"46792","RCS_SIZE":"LARGE"},{"DECAY_DATE":null,"REV_AT_EPOCH":"8462","INCLINATION":"53.0541","ELEMENT_SET_NO":"999","MEAN_MOTION":"15.06391426","MEAN_MOTION_DOT":"0.00001375","SITE":"AFETR","RA_OF_ASC_NODE":"157.2759","OBJECT_TYPE":"PAYLOAD","NORAD_CAT_ID":"46793","RCS_SIZE":"LARGE","LAUNCH_DATE":"2020-10-24","MEAN_ANOMALY":"310.1646","EPHEMERIS_TYPE":"0","EPOCH":"2022-05-02T19:50:19.814208","MEAN_ELEMENT_THEORY":"SGP4","GP_ID":"202554958","TLE_LINE2":"2 46793  53.0541 157.2759 0001801  49.9501 310.1646 15.06391426 84621","SEMIMAJOR_AXIS":"6925.375","PERIOD":"95.593","APOAPSIS":"548.487","COUNTRY_CODE":"US","CENTER_NAME":"EARTH","REF_FRAME":"TEME","PERIAPSIS":"545.993","OBJECT_NAME":"STARLINK-1941","TIME_SYSTEM":"UTC","TLE_LINE1":"1 46793U 20074BG  22122.82661822  .00001375  00000-0  11121-3 0  9991","BSTAR":"0.00011121000000","CLASSIFICATION_TYPE":"U","OBJECT_ID":"2020-074BG","ECCENTRICITY":"0.00018010","MEAN_MOTION_DDOT":"0.0000000000000","ARG_OF_PERICENTER":"49.9501","FILE":"3426306"},{"OBJECT_NAME":"STARLINK-1942","TIME_SYSTEM":"UTC","TLE_LINE1":"1 46794U 20074BH  22122.83399257  .00001695  00000-0  13271-3 0  9996","PERIAPSIS":"545.763","COUNTRY_CODE":"US","REF_FRAME":"TEME","CENTER_NAME":"EARTH","FILE":"3426306","ARG_OF_PERICENTER":"39.3082","OBJECT_ID":"2020-074BH","ECCENTRICITY":"0.00021220","MEAN_MOTION_DDOT":"0.0000000000000","BSTAR":"0.00013271000000","CLASSIFICATION_TYPE":"U","OBJECT_TYPE":"PAYLOAD","NORAD_CAT_ID":"46794","RCS_SIZE":"LARGE","RA_OF_ASC_NODE":"157.2459","DECAY_DATE":null,"ELEMENT_SET_NO":"999","REV_AT_EPOCH":"8463","INCLINATION":"53.0534","MEAN_MOTION":"15.06393939","SITE":"AFETR","MEAN_MOTION_DOT":"0.00001695","APOAPSIS":"548.702","GP_ID":"202555208","TLE_LINE2":"2 46794  53.0534 157.2459 0002122  39.3082 320.8061 15.06393939 84636","SEMIMAJOR_AXIS":"6925.367","PERIOD":"95.593","EPOCH":"2022-05-02T20:00:56.958048","EPHEMERIS_TYPE":"0","MEAN_ELEMENT_THEORY":"SGP4","LAUNCH_DATE":"2020-10-24","MEAN_ANOMALY":"320.8061"},{"CLASSIFICATION_TYPE":"U","BSTAR":"0.00012871000000","MEAN_MOTION_DDOT":"0.0000000000000","OBJECT_ID":"2020-074BK","ECCENTRICITY":"0.00023900","ARG_OF_PERICENTER":"38.0856","FILE":"3426306","COUNTRY_CODE":"US","REF_FRAME":"TEME","CENTER_NAME":"EARTH","PERIAPSIS":"545.575","TLE_LINE1":"1 46796U 20074BK  22122.54372419  .00001636  00000-0  12871-3 0  9997","TIME_SYSTEM":"UTC","OBJECT_NAME":"STARLINK-1944","MEAN_ANOMALY":"322.0301","LAUNCH_DATE":"2020-10-24","MEAN_ELEMENT_THEORY":"SGP4","EPHEMERIS_TYPE":"0","EPOCH":"2022-05-02T13:02:57.770016","PERIOD":"95.592","SEMIMAJOR_AXIS":"6925.365","TLE_LINE2":"2 46796  53.0535 148.5548 0002390  38.0856 322.0301 15.06394620 84722","GP_ID":"202556458","APOAPSIS":"548.885","MEAN_MOTION_DOT":"0.00001636","SITE":"AFETR","DECAY_DATE":null,"INCLINATION":"53.0535","REV_AT_EPOCH":"8472","ELEMENT_SET_NO":"999","MEAN_MOTION":"15.06394620","RA_OF_ASC_NODE":"148.5548","RCS_SIZE":"LARGE","OBJECT_TYPE":"PAYLOAD","NORAD_CAT_ID":"46796"},{"ARG_OF_PERICENTER":"45.3302","FILE":"3426095","BSTAR":"0.00014397000000","CLASSIFICATION_TYPE":"U","OBJECT_ID":"2020-074BM","ECCENTRICITY":"0.00018580","MEAN_MOTION_DDOT":"0.0000000000000","OBJECT_NAME":"STARLINK-1948","TIME_SYSTEM":"UTC","TLE_LINE1":"1 46798U 20074BM  22122.84088310  .00001863  00000-0  14397-3 0  9993","COUNTRY_CODE":"US","CENTER_NAME":"EARTH","REF_FRAME":"TEME","PERIAPSIS":"545.968","TLE_LINE2":"2 46798  53.0549 172.2173 0001858  45.3302 314.7838 15.06386648 84164","SEMIMAJOR_AXIS":"6925.389","GP_ID":"202530827","PERIOD":"95.593","APOAPSIS":"548.541","LAUNCH_DATE":"2020-10-24","MEAN_ANOMALY":"314.7838","EPHEMERIS_TYPE":"0","EPOCH":"2022-05-02T20:10:52.299840","MEAN_ELEMENT_THEORY":"SGP4","RA_OF_ASC_NODE":"172.2173","OBJECT_TYPE":"PAYLOAD","NORAD_CAT_ID":"46798","RCS_SIZE":"LARGE","DECAY_DATE":null,"ELEMENT_SET_NO":"999","REV_AT_EPOCH":"8416","MEAN_MOTION":"15.06386648","INCLINATION":"53.0549","SITE":"AFETR","MEAN_MOTION_DOT":"0.00001863"},{"CLASSIFICATION_TYPE":"U","BSTAR":"0.00008811000000","MEAN_MOTION_DDOT":"0.0000000000000","ECCENTRICITY":"0.00015510","OBJECT_ID":"2020-088A","ARG_OF_PERICENTER":"61.4199","FILE":"3426306","REF_FRAME":"TEME","COUNTRY_CODE":"US","CENTER_NAME":"EARTH","PERIAPSIS":"546.146","TLE_LINE1":"1 47122U 20088A   22122.72893981  .00001031  00000-0  88110-4 0  9997","TIME_SYSTEM":"UTC","OBJECT_NAME":"STARLINK-1777","MEAN_ANOMALY":"298.6946","LAUNCH_DATE":"2020-11-25","MEAN_ELEMENT_THEORY":"SGP4","EPOCH":"2022-05-02T17:29:40.399584","EPHEMERIS_TYPE":"0","PERIOD":"95.592","GP_ID":"202556242","TLE_LINE2":"2 47122  53.0537 137.6995 0001551  61.4199 298.6946 15.06397818 79775","SEMIMAJOR_AXIS":"6925.355","APOAPSIS":"548.294","MEAN_MOTION_DOT":"0.00001031","SITE":"AFETR","REV_AT_EPOCH":"7977","DECAY_DATE":null,"ELEMENT_SET_NO":"999","MEAN_MOTION":"15.06397818","INCLINATION":"53.0537","RA_OF_ASC_NODE":"137.6995","RCS_SIZE":"LARGE","NORAD_CAT_ID":"47122","OBJECT_TYPE":"PAYLOAD"},{"COUNTRY_CODE":"US","REF_FRAME":"TEME","CENTER_NAME":"EARTH","PERIAPSIS":"546.048","OBJECT_NAME":"STARLINK-1785","TLE_LINE1":"1 47124U 20088C   22122.51559358  .00002145  00000-0  16291-3 0  9990","TIME_SYSTEM":"UTC","BSTAR":"0.00016291000000","CLASSIFICATION_TYPE":"U","ECCENTRICITY":"0.00017030","OBJECT_ID":"2020-088C","MEAN_MOTION_DDOT":"0.0000000000000","ARG_OF_PERICENTER":"55.9172","FILE":"3426306","DECAY_DATE":null,"REV_AT_EPOCH":"7967","MEAN_MOTION":"15.06395371","ELEMENT_SET_NO":"999","INCLINATION":"53.0529","SITE":"AFETR","MEAN_MOTION_DOT":"0.00002145","RA_OF_ASC_NODE":"143.6731","NORAD_CAT_ID":"47124","OBJECT_TYPE":"PAYLOAD","RCS_SIZE":"LARGE","LAUNCH_DATE":"2020-11-25","MEAN_ANOMALY":"304.1979","EPHEMERIS_TYPE":"0","EPOCH":"2022-05-02T12:22:27.285312","MEAN_ELEMENT_THEORY":"SGP4","GP_ID":"202554996","TLE_LINE2":"2 47124  53.0529 143.6731 0001703  55.9172 304.1979 15.06395371 79671","SEMIMAJOR_AXIS":"6925.363","PERIOD":"95.592","APOAPSIS":"548.407"},{"EPOCH":"2022-05-02T18:06:49.342464","EPHEMERIS_TYPE":"0","MEAN_ELEMENT_THEORY":"SGP4","LAUNCH_DATE":"2020-11-25","MEAN_ANOMALY":"314.3871","APOAPSIS":"548.523","TLE_LINE2":"2 47126  53.0536 137.5861 0001888  45.7273 314.3871 15.06399279 79787","SEMIMAJOR_AXIS":"6925.351","GP_ID":"202555246","PERIOD":"95.592","REV_AT_EPOCH":"7978","DECAY_DATE":null,"INCLINATION":"53.0536","ELEMENT_SET_NO":"999","MEAN_MOTION":"15.06399279","MEAN_MOTION_DOT":"0.00001146","SITE":"AFETR","NORAD_CAT_ID":"47126","OBJECT_TYPE":"PAYLOAD","RCS_SIZE":"LARGE","RA_OF_ASC_NODE":"137.5861","OBJECT_ID":"2020-088E","ECCENTRICITY":"0.00018880","MEAN_MOTION_DDOT":"0.0000000000000","BSTAR":"0.00009582000000","CLASSIFICATION_TYPE":"U","FILE":"3426306","ARG_OF_PERICENTER":"45.7273","PERIAPSIS":"545.908","REF_FRAME":"TEME","COUNTRY_CODE":"US","CENTER_NAME":"EARTH","OBJECT_NAME":"STARLINK-1812","TLE_LINE1":"1 47126U 20088E   22122.75473776  .00001146  00000-0  95820-4 0  9993","TIME_SYSTEM":"UTC"}];
